CCSDS_OMM_VERS = 2.0
CREATION_DATE  = 
ORIGINATOR     = 

OBJECT_NAME    = FLOCK 4H-22
OBJECT_ID      = 2025-276BM
CENTER_NAME    = EARTH
REF_FRAME      = TEME
TIME_SYSTEM    = UTC
MEAN_ELEMENT_THEORY = SGP/SGP4

EPOCH          = 2025-12-27T10:38:41.252064
MEAN_MOTION    = 15.17551101
ECCENTRICITY   = .0001517
INCLINATION    = 97.4370
RA_OF_ASC_NODE = 72.9355
ARG_OF_PERICENTER = 261.1627
MEAN_ANOMALY   = 98.9435

EPHEMERIS_TYPE = 0
CLASSIFICATION_TYPE = U
NORAD_CAT_ID   = 66725
ELEMENT_SET_NO = 999
REV_AT_EPOCH   = 435
BSTAR          = .33136E-3
MEAN_MOTION_DOT = .6586E-4
MEAN_MOTION_DDOT = 0

CCSDS_OMM_VERS = 2.0
CREATION_DATE  = 
ORIGINATOR     = 

OBJECT_NAME    = FLOCK 4H-23
OBJECT_ID      = 2025-276BN
CENTER_NAME    = EARTH
REF_FRAME      = TEME
TIME_SYSTEM    = UTC
MEAN_ELEMENT_THEORY = SGP/SGP4

EPOCH          = 2025-12-27T10:45:01.107072
MEAN_MOTION    = 15.17279080
ECCENTRICITY   = .0003657
INCLINATION    = 97.4436
RA_OF_ASC_NODE = 72.9575
ARG_OF_PERICENTER = 222.2131
MEAN_ANOMALY   = 137.8821

EPHEMERIS_TYPE = 0
CLASSIFICATION_TYPE = U
NORAD_CAT_ID   = 66726
ELEMENT_SET_NO = 999
REV_AT_EPOCH   = 435
BSTAR          = .33339E-3
MEAN_MOTION_DOT = .6576E-4
MEAN_MOTION_DDOT = 0

CCSDS_OMM_VERS = 2.0
CREATION_DATE  = 
ORIGINATOR     = 

OBJECT_NAME    = FLOCK 4H-24
OBJECT_ID      = 2025-276BP
CENTER_NAME    = EARTH
REF_FRAME      = TEME
TIME_SYSTEM    = UTC
MEAN_ELEMENT_THEORY = SGP/SGP4

EPOCH          = 2025-12-27T10:42:08.908416
MEAN_MOTION    = 15.17383355
ECCENTRICITY   = .0002961
INCLINATION    = 97.4435
RA_OF_ASC_NODE = 72.9626
ARG_OF_PERICENTER = 239.6461
MEAN_ANOMALY   = 120.4480

EPHEMERIS_TYPE = 0
CLASSIFICATION_TYPE = U
NORAD_CAT_ID   = 66727
ELEMENT_SET_NO = 999
REV_AT_EPOCH   = 435
BSTAR          = .30902E-3
MEAN_MOTION_DOT = .6108E-4
MEAN_MOTION_DDOT = 0

CCSDS_OMM_VERS = 2.0
CREATION_DATE  = 
ORIGINATOR     = 

OBJECT_NAME    = FLOCK 4H-25
OBJECT_ID      = 2025-276BQ
CENTER_NAME    = EARTH
REF_FRAME      = TEME
TIME_SYSTEM    = UTC
MEAN_ELEMENT_THEORY = SGP/SGP4

EPOCH          = 2025-12-27T11:52:55.903008
MEAN_MOTION    = 15.18272319
ECCENTRICITY   = .0001773
INCLINATION    = 97.4391
RA_OF_ASC_NODE = 73.0306
ARG_OF_PERICENTER = 114.4967
MEAN_ANOMALY   = 245.6452

EPHEMERIS_TYPE = 0
CLASSIFICATION_TYPE = U
NORAD_CAT_ID   = 66728
ELEMENT_SET_NO = 999
REV_AT_EPOCH   = 364
BSTAR          = .34743E-3
MEAN_MOTION_DOT = .7054E-4
MEAN_MOTION_DDOT = 0

CCSDS_OMM_VERS = 2.0
CREATION_DATE  = 
ORIGINATOR     = 

OBJECT_NAME    = FLOCK 4H-26
OBJECT_ID      = 2025-276BR
CENTER_NAME    = EARTH
REF_FRAME      = TEME
TIME_SYSTEM    = UTC
MEAN_ELEMENT_THEORY = SGP/SGP4

EPOCH          = 2025-12-27T10:47:28.986720
MEAN_MOTION    = 15.17210383
ECCENTRICITY   = .0003742
INCLINATION    = 97.4385
RA_OF_ASC_NODE = 72.9372
ARG_OF_PERICENTER = 239.0492
MEAN_ANOMALY   = 121.0374

EPHEMERIS_TYPE = 0
CLASSIFICATION_TYPE = U
NORAD_CAT_ID   = 66729
ELEMENT_SET_NO = 999
REV_AT_EPOCH   = 435
BSTAR          = .5403E-3
MEAN_MOTION_DOT = .10683E-3
MEAN_MOTION_DDOT = 0

CCSDS_OMM_VERS = 2.0
CREATION_DATE  = 
ORIGINATOR     = 

OBJECT_NAME    = FLOCK 4H-27
OBJECT_ID      = 2025-276BS
CENTER_NAME    = EARTH
REF_FRAME      = TEME
TIME_SYSTEM    = UTC
MEAN_ELEMENT_THEORY = SGP/SGP4

EPOCH          = 2025-12-27T10:21:39.908160
MEAN_MOTION    = 15.18146459
ECCENTRICITY   = .0001392
INCLINATION    = 97.4364
RA_OF_ASC_NODE = 72.9527
ARG_OF_PERICENTER = 124.8142
MEAN_ANOMALY   = 235.3223

EPHEMERIS_TYPE = 0
CLASSIFICATION_TYPE = U
NORAD_CAT_ID   = 66730
ELEMENT_SET_NO = 999
REV_AT_EPOCH   = 435
BSTAR          = .86531E-3
MEAN_MOTION_DOT = .1763E-3
MEAN_MOTION_DDOT = 0

CCSDS_OMM_VERS = 2.0
CREATION_DATE  = 
ORIGINATOR     = 

OBJECT_NAME    = FLOCK 4H-28
OBJECT_ID      = 2025-276BT
CENTER_NAME    = EARTH
REF_FRAME      = TEME
TIME_SYSTEM    = UTC
MEAN_ELEMENT_THEORY = SGP/SGP4

EPOCH          = 2025-12-27T12:22:03.667008
MEAN_MOTION    = 15.17192553
ECCENTRICITY   = .0003374
INCLINATION    = 97.4375
RA_OF_ASC_NODE = 72.9980
ARG_OF_PERICENTER = 239.8434
MEAN_ANOMALY   = 120.2465

EPHEMERIS_TYPE = 0
CLASSIFICATION_TYPE = U
NORAD_CAT_ID   = 66731
ELEMENT_SET_NO = 999
REV_AT_EPOCH   = 436
BSTAR          = .32366E-3
MEAN_MOTION_DOT = .6366E-4
MEAN_MOTION_DDOT = 0

CCSDS_OMM_VERS = 2.0
CREATION_DATE  = 
ORIGINATOR     = 

OBJECT_NAME    = FLOCK 4H-29
OBJECT_ID      = 2025-276BU
CENTER_NAME    = EARTH
REF_FRAME      = TEME
TIME_SYSTEM    = UTC
MEAN_ELEMENT_THEORY = SGP/SGP4

EPOCH          = 2025-12-27T10:43:15.417408
MEAN_MOTION    = 15.17332625
ECCENTRICITY   = .000208
INCLINATION    = 97.4367
RA_OF_ASC_NODE = 72.9314
ARG_OF_PERICENTER = 254.8708
MEAN_ANOMALY   = 105.2295

EPHEMERIS_TYPE = 0
CLASSIFICATION_TYPE = U
NORAD_CAT_ID   = 66732
ELEMENT_SET_NO = 999
REV_AT_EPOCH   = 435
BSTAR          = .31381E-3
MEAN_MOTION_DOT = .6194E-4
MEAN_MOTION_DDOT = 0

CCSDS_OMM_VERS = 2.0
CREATION_DATE  = 
ORIGINATOR     = 

OBJECT_NAME    = FLOCK 4H-30
OBJECT_ID      = 2025-276BV
CENTER_NAME    = EARTH
REF_FRAME      = TEME
TIME_SYSTEM    = UTC
MEAN_ELEMENT_THEORY = SGP/SGP4

EPOCH          = 2025-12-27T12:00:02.000160
MEAN_MOTION    = 15.17287934
ECCENTRICITY   = .0003404
INCLINATION    = 97.4426
RA_OF_ASC_NODE = 73.0075
ARG_OF_PERICENTER = 240.2504
MEAN_ANOMALY   = 44.2494

EPHEMERIS_TYPE = 0
CLASSIFICATION_TYPE = U
NORAD_CAT_ID   = 66733
ELEMENT_SET_NO = 999
REV_AT_EPOCH   = 378
BSTAR          = .2162E-2
MEAN_MOTION_DOT = .43232E-3
MEAN_MOTION_DDOT = 0

CCSDS_OMM_VERS = 2.0
CREATION_DATE  = 
ORIGINATOR     = 

OBJECT_NAME    = FLOCK 4H-31
OBJECT_ID      = 2025-276BW
CENTER_NAME    = EARTH
REF_FRAME      = TEME
TIME_SYSTEM    = UTC
MEAN_ELEMENT_THEORY = SGP/SGP4

EPOCH          = 2025-12-27T12:00:02.000160
MEAN_MOTION    = 15.17236122
ECCENTRICITY   = .0002629
INCLINATION    = 97.4363
RA_OF_ASC_NODE = 72.9808
ARG_OF_PERICENTER = 246.7082
MEAN_ANOMALY   = 37.6918

EPHEMERIS_TYPE = 0
CLASSIFICATION_TYPE = U
NORAD_CAT_ID   = 66734
ELEMENT_SET_NO = 999
REV_AT_EPOCH   = 378
BSTAR          = .20868E-2
MEAN_MOTION_DOT = .41652E-3
MEAN_MOTION_DDOT = 0

CCSDS_OMM_VERS = 2.0
CREATION_DATE  = 
ORIGINATOR     = 

OBJECT_NAME    = FLOCK 4H-32
OBJECT_ID      = 2025-276BX
CENTER_NAME    = EARTH
REF_FRAME      = TEME
TIME_SYSTEM    = UTC
MEAN_ELEMENT_THEORY = SGP/SGP4

EPOCH          = 2025-12-27T12:20:30.329952
MEAN_MOTION    = 15.17296096
ECCENTRICITY   = .0003726
INCLINATION    = 97.4420
RA_OF_ASC_NODE = 73.0173
ARG_OF_PERICENTER = 236.3590
MEAN_ANOMALY   = 123.7288

EPHEMERIS_TYPE = 0
CLASSIFICATION_TYPE = U
NORAD_CAT_ID   = 66735
ELEMENT_SET_NO = 999
REV_AT_EPOCH   = 436
BSTAR          = .10208E-2
MEAN_MOTION_DOT = .20318E-3
MEAN_MOTION_DDOT = 0

CCSDS_OMM_VERS = 2.0
CREATION_DATE  = 
ORIGINATOR     = 

OBJECT_NAME    = FLOCK 4H-33
OBJECT_ID      = 2025-276BY
CENTER_NAME    = EARTH
REF_FRAME      = TEME
TIME_SYSTEM    = UTC
MEAN_ELEMENT_THEORY = SGP/SGP4

EPOCH          = 2025-12-27T11:51:53.092800
MEAN_MOTION    = 15.18361620
ECCENTRICITY   = .0002927
INCLINATION    = 97.4419
RA_OF_ASC_NODE = 73.0432
ARG_OF_PERICENTER = 148.3017
MEAN_ANOMALY   = 211.8394

EPHEMERIS_TYPE = 0
CLASSIFICATION_TYPE = U
NORAD_CAT_ID   = 66736
ELEMENT_SET_NO = 999
REV_AT_EPOCH   = 436
BSTAR          = .47866E-3
MEAN_MOTION_DOT = .9773E-4
MEAN_MOTION_DDOT = 0

