FLOCK 4H-22             
1 66725U 25276BM  25361.44353301  .00006586  00000+0  33136-3 0  9991
2 66725  97.4370  72.9355 0001517 261.1627  98.9435 15.17551101  4355
FLOCK 4H-23             
1 66726U 25276BN  25361.44792948  .00006576  00000+0  33339-3 0  9990
2 66726  97.4436  72.9575 0003657 222.2131 137.8821 15.17279080  4353
FLOCK 4H-24             
1 66727U 25276BP  25361.44593644  .00006108  00000+0  30902-3 0  9997
2 66727  97.4435  72.9626 0002961 239.6461 120.4480 15.17383355  4355
FLOCK 4H-25             
1 66728U 25276BQ  25361.49509147  .00007054  00000+0  34743-3 0  9996
2 66728  97.4391  73.0306 0001773 114.4967 245.6452 15.18272319  3643
FLOCK 4H-26             
1 66729U 25276BR  25361.44964105  .00010683  00000+0  54030-3 0  9994
2 66729  97.4385  72.9372 0003742 239.0492 121.0374 15.17210383  4354
FLOCK 4H-27             
1 66730U 25276BS  25361.43171190  .00017630  00000+0  86531-3 0  9999
2 66730  97.4364  72.9527 0001392 124.8142 235.3223 15.18146459  4352
FLOCK 4H-28             
1 66731U 25276BT  25361.51532022  .00006366  00000+0  32366-3 0  9995
2 66731  97.4375  72.9980 0003374 239.8434 120.2465 15.17192553  4367
FLOCK 4H-29             
1 66732U 25276BU  25361.44670622  .00006194  00000+0  31381-3 0  9992
2 66732  97.4367  72.9314 0002080 254.8708 105.2295 15.17332625  4353
FLOCK 4H-30             
1 66733U 25276BV  25361.50002315  .00043232  00000+0  21620-2 0  9996
2 66733  97.4426  73.0075 0003404 240.2504  44.2494 15.17287934  3781
FLOCK 4H-31             
1 66734U 25276BW  25361.50002315  .00041652  00000+0  20868-2 0  9994
2 66734  97.4363  72.9808 0002629 246.7082  37.6918 15.17236122  3784
FLOCK 4H-32             
1 66735U 25276BX  25361.51423993  .00020318  00000+0  10208-2 0  9998
2 66735  97.4420  73.0173 0003726 236.3590 123.7288 15.17296096  4362
FLOCK 4H-33             
1 66736U 25276BY  25361.49436450  .00009773  00000+0  47866-3 0  9991
2 66736  97.4419  73.0432 0002927 148.3017 211.8394 15.18361620  4361
